IRIDIUM 8 [+]           
1 24792U 97020A   13109.39920163  .00000182  00000-0  58087-4 0  3143
2 24792  86.3984 233.8786 0002329 110.5034 249.6411 14.34219303835363
IRIDIUM 7 [+]           
1 24793U 97020B   13109.40458917  .00000232  00000-0  75914-4 0  3154
2 24793  86.3988 234.0761 0002311 111.5131 308.8807 14.34220374835361
IRIDIUM 6 [+]           
1 24794U 97020C   13109.38653477  .00000232  00000-0  75713-4 0  1144
2 24794  86.3986 234.0477 0002031 109.8081 250.3334 14.34220177835364
IRIDIUM 5 [+]           
1 24795U 97020D   13109.38019440  .00000235  00000-0  76810-4 0  5079
2 24795  86.3985 234.1557 0002496 126.0251 234.1176 14.34220540835446
IRIDIUM 4 [-]           
1 24796U 97020E   13109.40541670  .00000196  00000-0  62706-4 0  3532
2 24796  86.3983 233.7258 0002276 106.4091 313.4080 14.34346458835383
IRIDIUM 914 [-]         
1 24836U 97030A   13109.44028725  .00000220  00000-0  66197-4 0  8837
2 24836  86.3932 254.5543 0003460  86.9186 329.1324 14.37937362830487
IRIDIUM 12 [+]          
1 24837U 97030B   13109.47693747  .00000101  00000-0  29014-4 0  3271
2 24837  86.3936 265.2935 0002359 109.2498 306.8918 14.34217634829127
IRIDIUM 10 [+]          
1 24839U 97030D   13109.52892287  .00000048  00000-0  10193-4 0  3266
2 24839  86.3935 265.2610 0002263 109.3859 280.6450 14.34215713829142
IRIDIUM 13 [+]          
1 24840U 97030E   13109.47879998  .00000102  00000-0  29347-4 0  2751
2 24840  86.3937 265.3894 0002240 108.1688 284.9576 14.34216487829126
IRIDIUM 16 [-]          
1 24841U 97030F   13109.48378375  .00000263  00000-0  83967-4 0  2998
2 24841  86.4015 266.0203 0002505 150.3493 267.2064 14.35810564829442
IRIDIUM 911 [-]         
1 24842U 97030G   13109.45373139  .00000303  00000-0  82873-4 0  9750
2 24842  86.4442 267.6479 0017075  96.6457 315.6848 14.43850934833558
IRIDIUM 15 [+]          
1 24869U 97034A   13109.54298459  .00000100  00000-0  28536-4 0  3726
2 24869  86.3924 296.9876 0002293 108.6303 303.7186 14.34221690826104
IRIDIUM 17 [-]          
1 24870U 97034B   13109.44729870  .00000247  00000-0  80074-4 0  2864
2 24870  86.3931 296.5670 0002098  97.2935 324.5527 14.34937191826165
IRIDIUM 920 [-]         
1 24871U 97034C   13109.45778214  .00000244  00000-0  73298-4 0  9204
2 24871  86.3940 286.3862 0009656 299.1931 116.8973 14.38597583827789
IRIDIUM 18 [+]          
1 24872U 97034D   13109.56457851  .00000103  00000-0  29608-4 0  3044
2 24872  86.3928 297.1704 0002095 110.3997 249.7424 14.34221863826100
IRIDIUM 921 [-]         
1 24873U 97034E   13109.44162841  .00001616  00000-0  12360-3 0  4287
2 24873  86.3867  60.3497 0010039 146.3065 353.0782 15.01158306859191
IRIDIUM 26 [-]          
1 24903U 97043A   13109.44048862  .00000238  00000-0  77432-4 0  4299
2 24903  86.4003 170.7205 0002197 109.4446  19.6888 14.34503031820037
IRIDIUM 25 [+]          
1 24904U 97043B   13109.24344529 -.00000009  00000-0 -10329-4 0  3285
2 24904  86.3999 170.7679 0002452 111.6454 298.4000 14.34210876819969
IRIDIUM 46 [+]          
1 24905U 97043C   13109.54854422  .00000265  00000-0  87474-4 0  3420
2 24905  86.4006 171.0502 0002317 109.0345   9.8639 14.34220450820018
IRIDIUM 23 [S]          
1 24906U 97043D   13109.59935870  .00000401  00000-0  13619-3 0  3468
2 24906  86.3999 170.5335 0002264 108.7094  40.4631 14.34216602820023
IRIDIUM 22 [+]          
1 24907U 97043E   13109.59261009  .00000267  00000-0  88406-4 0  3079
2 24907  86.4004 171.1117 0002333 111.6529  38.2265 14.34209602820020
DUMMY MASS 1 [-]        
1 24925U 97048A   13109.82527149  .00000186  00000-0  18895-4 0  4807
2 24925  86.3397  23.4970 0007332  31.1209   1.1452 14.84309879846145
DUMMY MASS 2 [-]        
1 24926U 97048B   13109.31406542  .00000185  00000-0  18786-4 0  4689
2 24926  86.3397  24.6002 0008444  36.1240 111.3671 14.84085990845949
IRIDIUM 29 [+]          
1 24944U 97051A   13109.29429438  .00000073  00000-0  18873-4 0  2668
2 24944  86.4015 202.3346 0002338 111.6882 248.4562 14.34213386816553
IRIDIUM 32 [+]          
1 24945U 97051B   13109.31332139  .00000171  00000-0  54057-4 0  3016
2 24945  86.4011 202.3499 0002313 112.5910 247.5531 14.34213088816571
IRIDIUM 33 [-]          
1 24946U 97051C   13109.35972205  .00000172  00000-0  55598-4 0  3972
2 24946  86.3932 202.4972 0009823 143.6014 283.3411 14.32891373816340
IRIDIUM 28 [-]          
1 24948U 97051E   13109.34628326  .00000186  00000-0  58802-4 0  1520
2 24948  86.4022 202.3129 0002349 120.0172 303.9925 14.34771696816588
IRIDIUM 30 [+]          
1 24949U 97051F   13109.30698761  .00000282  00000-0  93726-4 0  3485
2 24949  86.4018 202.4261 0002243 110.8618 249.2818 14.34213719816554
IRIDIUM 31 [+]          
1 24950U 97051G   13109.37041107  .00000074  00000-0  19528-4 0  3083
2 24950  86.4020 202.4041 0003257  99.8349 260.3215 14.34213421816575
IRIDIUM 19 [+]          
1 24965U 97056A   13109.42459227  .00000226  00000-0  73507-4 0  2878
2 24965  86.3986 233.8619 0002327 110.5913 249.5533 14.34219915814726
IRIDIUM 35 [+]          
1 24966U 97056B   13109.36750658  .00000241  00000-0  78822-4 0  3383
2 24966  86.3987 233.8960 0002299 111.3726 248.7716 14.34220400814697
IRIDIUM 36 [-]          
1 24967U 97056C   13109.39367278  .00000200  00000-0  63665-4 0  2696
2 24967  86.3995 233.8556 0002441 109.6315 307.0184 14.34790316814877
IRIDIUM 37 [+]          
1 24968U 97056D   13109.41190396  .00000238  00000-0  77760-4 0  2945
2 24968  86.3987 234.0191 0002341 110.5179 249.6268 14.34220939814700
IRIDIUM 34 [+]          
1 24969U 97056E   13109.43093159  .00000227  00000-0  73814-4 0  2828
2 24969  86.3988 233.9507 0002335 110.6095 249.5352 14.34220454814707
IRIDIUM 43 [+]          
1 25039U 97069A   13109.56918588 -.00000020  00000-0 -14189-4 0  2886
2 25039  86.3913 297.1231 0002488 114.6170 301.9645 14.34218692808507
IRIDIUM 41 [+]          
1 25040U 97069B   13109.55833840  .00000094  00000-0  26383-4 0  2826
2 25040  86.3926 297.0774 0002018 112.9847 280.3665 14.34221314808502
IRIDIUM 40 [+]          
1 25041U 97069C   13109.57726750  .00000095  00000-0  26944-4 0  3117
2 25041  86.3926 297.0192 0002278 108.9445 251.1998 14.34221520808520
IRIDIUM 39 [+]          
1 25042U 97069D   13109.58361324  .00000097  00000-0  27711-4 0  2913
2 25042  86.3916 297.2827 0001642 107.6201 252.5174 14.34221182808500
IRIDIUM 38 [-]          
1 25043U 97069E   13109.50474301  .00000237  00000-0  76203-4 0  2888
2 25043  86.3927 295.8126 0002063 138.5882 276.8375 14.35202196808692
IRIDIUM 42 [+]          
1 25077U 97077A   13109.57092165  .00000095  00000-0  26894-4 0  2912
2 25077  86.3926 297.1257 0002303 109.6419 250.5025 14.34221682804361
IRIDIUM 44 [-]          
1 25078U 97077B   13109.49899067  .00000284  00000-0  88771-4 0  7759
2 25078  86.3929 290.2410 0002516 148.6054 262.9486 14.37157805805282
IRIDIUM 45 [+]          
1 25104U 97082A   13109.61084227  .00000260  00000-0  85913-4 0  2533
2 25104  86.3984 170.5987 0002287 106.8322   6.2237 14.34212456802563
IRIDIUM 24 [-]          
1 25105U 97082B   13109.20889150  .00000255  00000-0  76532-4 0  8242
2 25105  86.3947 156.8558 0009621 310.7920  85.1626 14.38879654804207
IRIDIUM 47 [+]          
1 25106U 97082C   13109.55456986  .00000261  00000-0  86093-4 0  2309
2 25106  86.3995 170.5569 0002012 106.0717  11.1865 14.34220272802555
IRIDIUM 49 [+]          
1 25108U 97082E   13109.57392131  .00000254  00000-0  83771-4 0  2564
2 25108  86.3995 170.6115 0002309 109.2303  42.3783 14.34218059802566
IRIDIUM 52 [+]          
1 25169U 98010A   13109.51653640  .00000088  00000-0  24435-4 0   185
2 25169  86.3941 265.5002 0002318 109.6634 314.6324 14.34216570793969
IRIDIUM 56 [+]          
1 25170U 98010B   13109.51011159  .00000089  00000-0  24869-4 0  8089
2 25170  86.3944 265.5821 0002332 109.5242 314.2689 14.34216505793949
IRIDIUM 54 [+]          
1 25171U 98010C   13109.52949068  .00000083  00000-0  22594-4 0  2519
2 25171  86.3943 265.5072 0002307 109.5353 250.6092 14.34216473794117
IRIDIUM 50 [+]          
1 25172U 98010D   13109.49767144  .00000095  00000-0  26802-4 0  2934
2 25172  86.3939 265.4850 0002321 109.2784 283.0492 14.34216662793941
IRIDIUM 53 [+]          
1 25173U 98010E   13109.51646628  .00000078  00000-0  20655-4 0  2695
2 25173  86.3942 265.4842 0002316 110.0391 281.0858 14.34216494793953
IRIDIUM 51 [S]          
1 25262U 98018A   13109.39279341  .00000229  00000-0  74732-4 0  4068
2 25262  86.3990 234.1543 0002101 114.2553 245.8863 14.34220643793320
IRIDIUM 61 [+]          
1 25263U 98018B   13109.41824718  .00000226  00000-0  73486-4 0  2101
2 25263  86.3986 233.9858 0002306 110.4250 249.7194 14.34220279789039
IRIDIUM 55 [+]          
1 25272U 98019A   13109.35135827  .00000259  00000-0  85494-4 0  2143
2 25272  86.4015 202.2534 0002277 111.4959 248.6479 14.34220884788223
IRIDIUM 57 [+]          
1 25273U 98019B   13109.32600816  .00000258  00000-0  85188-4 0  2493
2 25273  86.4017 202.5035 0002299 111.4654 248.6788 14.34213223788223
IRIDIUM 58 [+]          
1 25274U 98019C   13108.35558789  .00000270  00000-0  89210-4 0   680
2 25274  86.4022 203.0609 0002207 111.3954 248.7477 14.34212474788081
IRIDIUM 59 [+]          
1 25275U 98019D   13109.33869045  .00000104  00000-0  30153-4 0  8451
2 25275  86.4015 202.5869 0002340 110.0958 250.0490 14.34214384788223
IRIDIUM 60 [+]          
1 25276U 98019E   13109.34503522  .00000264  00000-0  87212-4 0  2941
2 25276  86.4013 202.2629 0002311 112.3427 247.8013 14.34212872788222
IRIDIUM 62 [+]          
1 25285U 98021A   13108.53903663  .00000164  00000-0  51563-4 0  2662
2 25285  86.3960 139.5535 0002241 106.1422 254.0021 14.34218757787066
IRIDIUM 63 [+]          
1 25286U 98021B   13108.57714556  .00000170  00000-0  53699-4 0  2825
2 25286  86.3963 139.6948 0002387 102.3335  61.6477 14.34222027787063
IRIDIUM 64 [+]          
1 25287U 98021C   13108.55172022  .00000140  00000-0  42923-4 0  2151
2 25287  86.3958 139.5770 0002773 112.7941 247.3548 14.34223236787040
